{
  "type": "FeatureCollection",
  "features": [
    {
      "type": "Feature",
      "properties": {
        "norad_id": 29954,
        "name": "FENGYUN 1C DEB",
        "group": "fengyun-1c-debris",
        "lat": 25.60386076313852,
        "lon": 23.571504242069988,
        "alt_km": 807.4494638211554,
        "timestamp": "2025-12-15T20:48:54.156115+00:00",
        "meta_object_name": "FENGYUN 1C DEB",
        "meta_object_id": "1999-025KC",
        "meta_epoch": "2025-12-14T16:13:50.782080",
        "meta_mean_motion": 14.34242597,
        "meta_eccentricity": 0.00743999,
        "meta_inclination": 100.1513,
        "meta_ra_of_asc_node": 27.1004,
        "meta_arg_of_pericenter": 263.7937,
        "meta_mean_anomaly": 95.4763,
        "meta_ephemeris_type": 0,
        "meta_classification_type": "U",
        "meta_norad_cat_id": 29954,
        "meta_element_set_no": 999,
        "meta_rev_at_epoch": 98215,
        "meta_bstar": 0.00084901961,
        "meta_mean_motion_dot": 2.399e-05,
        "meta_mean_motion_ddot": 0,
        "tle_line1": "1 29954U 99025KC  25348.67628220  .00002399  00000+0  84902-3 0  9997",
        "tle_line2": "2 29954 100.1513  27.1004 0074399 263.7937  95.4763 14.34242597982155"
      },
      "geometry": {
        "type": "Point",
        "coordinates": [
          23.571504242069988,
          25.60386076313852
        ]
      }
    },
    {
      "type": "Feature",
      "properties": {
        "norad_id": 29955,
        "name": "FENGYUN 1C DEB",
        "group": "fengyun-1c-debris",
        "lat": 16.761421841701267,
        "lon": -106.39657786740555,
        "alt_km": 763.3984577209585,
        "timestamp": "2025-12-15T20:48:54.156125+00:00",
        "meta_object_name": "FENGYUN 1C DEB",
        "meta_object_id": "1999-025KD",
        "meta_epoch": "2025-12-14T04:15:49.131936",
        "meta_mean_motion": 14.38261011,
        "meta_eccentricity": 0.00076871,
        "meta_inclination": 99.274,
        "meta_ra_of_asc_node": 68.9596,
        "meta_arg_of_pericenter": 244.1613,
        "meta_mean_anomaly": 175.1752,
        "meta_ephemeris_type": 0,
        "meta_classification_type": "U",
        "meta_norad_cat_id": 29955,
        "meta_element_set_no": 999,
        "meta_rev_at_epoch": 98082,
        "meta_bstar": 0.0017105589,
        "meta_mean_motion_dot": 5.156e-05,
        "meta_mean_motion_ddot": 0,
        "tle_line1": "1 29955U 99025KD  25348.17765199  .00005156  00000+0  17106-2 0  9995",
        "tle_line2": "2 29955  99.2740  68.9596 0007687 244.1613 175.1752 14.38261011980827"
      },
      "geometry": {
        "type": "Point",
        "coordinates": [
          -106.39657786740555,
          16.761421841701267
        ]
      }
    },
    {
      "type": "Feature",
      "properties": {
        "norad_id": 29956,
        "name": "FENGYUN 1C DEB",
        "group": "fengyun-1c-debris",
        "lat": -44.663935973338205,
        "lon": -170.16705953757833,
        "alt_km": 910.3769499036543,
        "timestamp": "2025-12-15T20:48:54.156135+00:00",
        "meta_object_name": "FENGYUN 1C DEB",
        "meta_object_id": "1999-025KE",
        "meta_epoch": "2025-12-14T20:39:31.521600",
        "meta_mean_motion": 14.06170635,
        "meta_eccentricity": 0.00536285,
        "meta_inclination": 98.7916,
        "meta_ra_of_asc_node": 17.6537,
        "meta_arg_of_pericenter": 11.6461,
        "meta_mean_anomaly": 161.622,
        "meta_ephemeris_type": 0,
        "meta_classification_type": "U",
        "meta_norad_cat_id": 29956,
        "meta_element_set_no": 999,
        "meta_rev_at_epoch": 97079,
        "meta_bstar": -1.229327e-06,
        "meta_mean_motion_dot": -4.5e-07,
        "meta_mean_motion_ddot": 0,
        "tle_line1": "1 29956U 99025KE  25348.86078150 -.00000045  00000+0 -12293-5 0  9995",
        "tle_line2": "2 29956  98.7916  17.6537 0053628  11.6461 161.6220 14.06170635970798"
      },
      "geometry": {
        "type": "Point",
        "coordinates": [
          -170.16705953757833,
          -44.663935973338205
        ]
      }
    },
    {
      "type": "Feature",
      "properties": {
        "norad_id": 29957,
        "name": "FENGYUN 1C DEB",
        "group": "fengyun-1c-debris",
        "lat": 63.22804251408975,
        "lon": 98.88813432995154,
        "alt_km": 721.7417847799461,
        "timestamp": "2025-12-15T20:48:54.156145+00:00",
        "meta_object_name": "FENGYUN 1C DEB",
        "meta_object_id": "1999-025KF",
        "meta_epoch": "2025-12-14T08:21:53.436960",
        "meta_mean_motion": 14.51200339,
        "meta_eccentricity": 0.00377441,
        "meta_inclination": 98.9197,
        "meta_ra_of_asc_node": 115.415,
        "meta_arg_of_pericenter": 173.3171,
        "meta_mean_anomaly": 241.727,
        "meta_ephemeris_type": 0,
        "meta_classification_type": "U",
        "meta_norad_cat_id": 29957,
        "meta_element_set_no": 999,
        "meta_rev_at_epoch": 97515,
        "meta_bstar": 0.0050936298,
        "meta_mean_motion_dot": 0.00020427,
        "meta_mean_motion_ddot": 0,
        "tle_line1": "1 29957U 99025KF  25348.34853515  .00020427  00000+0  50936-2 0  9992",
        "tle_line2": "2 29957  98.9197 115.4150 0037744 173.3171 241.7270 14.51200339975150"
      },
      "geometry": {
        "type": "Point",
        "coordinates": [
          98.88813432995154,
          63.22804251408975
        ]
      }
    },
    {
      "type": "Feature",
      "properties": {
        "norad_id": 29958,
        "name": "FENGYUN 1C DEB",
        "group": "fengyun-1c-debris",
        "lat": -72.79290380324446,
        "lon": 33.65459275247082,
        "alt_km": 821.004158130273,
        "timestamp": "2025-12-15T20:48:54.156155+00:00",
        "meta_object_name": "FENGYUN 1C DEB",
        "meta_object_id": "1999-025KG",
        "meta_epoch": "2025-12-14T14:36:26.207424",
        "meta_mean_motion": 14.14459816,
        "meta_eccentricity": 0.00542708,
        "meta_inclination": 98.6685,
        "meta_ra_of_asc_node": 2.9206,
        "meta_arg_of_pericenter": 327.8514,
        "meta_mean_anomaly": 31.9354,
        "meta_ephemeris_type": 0,
        "meta_classification_type": "U",
        "meta_norad_cat_id": 29958,
        "meta_element_set_no": 999,
        "meta_rev_at_epoch": 97477,
        "meta_bstar": 0.00040977961,
        "meta_mean_motion_dot": 7.53e-06,
        "meta_mean_motion_ddot": 0,
        "tle_line1": "1 29958U 99025KG  25348.60863666  .00000753  00000+0  40978-3 0  9996",
        "tle_line2": "2 29958  98.6685   2.9206 0054270 327.8514  31.9354 14.14459816974776"
      },
      "geometry": {
        "type": "Point",
        "coordinates": [
          33.65459275247082,
          -72.79290380324446
        ]
      }
    },
    {
      "type": "Feature",
      "properties": {
        "norad_id": 29959,
        "name": "FENGYUN 1C DEB",
        "group": "fengyun-1c-debris",
        "lat": 12.668099673283448,
        "lon": -157.55809371389995,
        "alt_km": 900.7909932884104,
        "timestamp": "2025-12-15T20:48:54.156166+00:00",
        "meta_object_name": "FENGYUN 1C DEB",
        "meta_object_id": "1999-025KH",
        "meta_epoch": "2025-12-14T15:34:43.271616",
        "meta_mean_motion": 14.06015763,
        "meta_eccentricity": 0.00416475,
        "meta_inclination": 98.8081,
        "meta_ra_of_asc_node": 19.2601,
        "meta_arg_of_pericenter": 322.5114,
        "meta_mean_anomaly": 162.1815,
        "meta_ephemeris_type": 0,
        "meta_classification_type": "U",
        "meta_norad_cat_id": 29959,
        "meta_element_set_no": 999,
        "meta_rev_at_epoch": 96967,
        "meta_bstar": 6.514923e-05,
        "meta_mean_motion_dot": 6.4e-07,
        "meta_mean_motion_ddot": 0,
        "tle_line1": "1 29959U 99025KH  25348.64911194  .00000064  00000+0  65149-4 0  9994",
        "tle_line2": "2 29959  98.8081  19.2601 0041647 322.5114 162.1815 14.06015763969673"
      },
      "geometry": {
        "type": "Point",
        "coordinates": [
          -157.55809371389995,
          12.668099673283448
        ]
      }
    },
    {
      "type": "Feature",
      "properties": {
        "norad_id": 29960,
        "name": "FENGYUN 1C DEB",
        "group": "fengyun-1c-debris",
        "lat": 0.1898252328183167,
        "lon": -24.691665395655686,
        "alt_km": 831.8666586017289,
        "timestamp": "2025-12-15T20:48:54.156176+00:00",
        "meta_object_name": "FENGYUN 1C DEB",
        "meta_object_id": "1999-025KJ",
        "meta_epoch": "2025-12-14T09:58:01.379136",
        "meta_mean_motion": 14.16407074,
        "meta_eccentricity": 0.00908903,
        "meta_inclination": 98.6144,
        "meta_ra_of_asc_node": 333.9319,
        "meta_arg_of_pericenter": 281.44,
        "meta_mean_anomaly": 238.1554,
        "meta_ephemeris_type": 0,
        "meta_classification_type": "U",
        "meta_norad_cat_id": 29960,
        "meta_element_set_no": 999,
        "meta_rev_at_epoch": 97478,
        "meta_bstar": 0.00060650742,
        "meta_mean_motion_dot": 1.212e-05,
        "meta_mean_motion_ddot": 0,
        "tle_line1": "1 29960U 99025KJ  25348.41529374  .00001212  00000+0  60651-3 0  9994",
        "tle_line2": "2 29960  98.6144 333.9319 0090890 281.4400 238.1554 14.16407074974783"
      },
      "geometry": {
        "type": "Point",
        "coordinates": [
          -24.691665395655686,
          0.1898252328183167
        ]
      }
    }
  ]
}